{"type": "FeatureCollection", "features": [ {"type": "Feature", "properties": {"norad_id": 66910, "name": "1998-067XW", "group": "last-30-days", "lat": -37.226584373553244, "lon": -49.73651829518663, "alt_km": 410.0920648497504, "timestamp": "2025-12-22T14:45:56.098837+00:00", "meta": {"OBJECT_NAME": "1998-067XW", "OBJECT_ID": "1998-067XW", "EPOCH": "2025-12-21T16:09:10.415808", "MEAN_MOTION": 15.52740161, "ECCENTRICITY": 0.00040642, "INCLINATION": 51.6307, "RA_OF_ASC_NODE": 97.9437, "ARG_OF_PERICENTER": 256.0944, "MEAN_ANOMALY": 103.9594, "EPHEMERIS_TYPE": 0, "CLASSIFICATION_TYPE": "U", "NORAD_CAT_ID": 66910, "ELEMENT_SET_NO": 999, "REV_AT_EPOCH": 300, "BSTAR": 0.00090790144, "MEAN_MOTION_DOT": 0.000571, "MEAN_MOTION_DDOT": 0}, "tle": {"line1": "1 66910U 98067XW  25355.67303722  .00057100  00000+0  90790-3 0  9992", "line2": "2 66910  51.6307  97.9437 0004064 256.0944 103.9594 15.52740161  3005"}}, "geometry": {"type": "Point", "coordinates": [-49.73651829518663, -37.226584373553244]}}, {"type": "Feature", "properties": {"norad_id": 66911, "name": "1998-067XX", "group": "last-30-days", "lat": -46.40602358321871, "lon": -30.46188642290041, "alt_km": 409.1145595964681, "timestamp": "2025-12-22T14:45:56.098849+00:00", "meta": {"OBJECT_NAME": "1998-067XX", "OBJECT_ID": "1998-067XX", "EPOCH": "2025-12-21T12:59:52.344384", "MEAN_MOTION": 15.53156659, "ECCENTRICITY": 0.0003822, "INCLINATION": 51.6308, "RA_OF_ASC_NODE": 98.5657, "ARG_OF_PERICENTER": 260.7512, "MEAN_ANOMALY": 99.3046, "EPHEMERIS_TYPE": 0, "CLASSIFICATION_TYPE": "U", "NORAD_CAT_ID": 66911, "ELEMENT_SET_NO": 999, "REV_AT_EPOCH": 297, "BSTAR": 0.00097482, "MEAN_MOTION_DOT": 0.00062319, "MEAN_MOTION_DDOT": 0}, "tle": {"line1": "1 66911U 98067XX  25355.54157806  .00062319  00000+0  97482-3 0  9992", "line2": "2 66911  51.6308  98.5657 0003822 260.7512  99.3046 15.53156659  2971"}}, "geometry": {"type": "Point", "coordinates": [-30.46188642290041, -46.40602358321871]}}, {"type": "Feature", "properties": {"norad_id": 66912, "name": "1998-067XY", "group": "last-30-days", "lat": -5.740710838519749, "lon": -82.08878147790155, "alt_km": 412.1814701108051, "timestamp": "2025-12-22T14:45:56.098861+00:00", "meta": {"OBJECT_NAME": "1998-067XY", "OBJECT_ID": "1998-067XY", "EPOCH": "2025-12-21T11:41:25.287072", "MEAN_MOTION": 15.51934859, "ECCENTRICITY": 0.0004003, "INCLINATION": 51.6317, "RA_OF_ASC_NODE": 98.9521, "ARG_OF_PERICENTER": 271.7448, "MEAN_ANOMALY": 88.3083, "EPHEMERIS_TYPE": 0, "CLASSIFICATION_TYPE": "U", "NORAD_CAT_ID": 66912, "ELEMENT_SET_NO": 999, "REV_AT_EPOCH": 296, "BSTAR": 0.00071547257, "MEAN_MOTION_DOT": 0.0004353, "MEAN_MOTION_DDOT": 0}, "tle": {"line1": "1 66912U 98067XY  25355.48709823  .00043530  00000+0  71547-3 0  9996", "line2": "2 66912  51.6317  98.9521 0004003 271.7448  88.3083 15.51934859  2960"}}, "geometry": {"type": "Point", "coordinates": [-82.08878147790155, -5.740710838519749]}}, {"type": "Feature", "properties": {"norad_id": 66913, "name": "2025-284A", "group": "last-30-days", "lat": -27.2291849956387, "lon": -57.65717774371795, "alt_km": 539.8549955085982, "timestamp": "2025-12-22T14:45:56.098873+00:00", "meta": {"OBJECT_NAME": "2025-284A", "OBJECT_ID": "2025-284A", "EPOCH": "2025-12-22T07:28:52.635648", "MEAN_MOTION": 15.0888016, "ECCENTRICITY": 0.00135379, "INCLINATION": 80.4036, "RA_OF_ASC_NODE": 117.7271, "ARG_OF_PERICENTER": 262.5275, "MEAN_ANOMALY": 97.4409, "EPHEMERIS_TYPE": 0, "CLASSIFICATION_TYPE": "U", "NORAD_CAT_ID": 66913, "ELEMENT_SET_NO": 999, "REV_AT_EPOCH": 257, "BSTAR": 0.00054471933, "MEAN_MOTION_DOT": 8.62e-05, "MEAN_MOTION_DDOT": 0}, "tle": {"line1": "1 66913U 25284A   25356.31172032  .00008620  00000+0  54472-3 0  9996", "line2": "2 66913  80.4036 117.7271 0013537 262.5275  97.4409 15.08880160  2576"}}, "geometry": {"type": "Point", "coordinates": [-57.65717774371795, -27.2291849956387]}}, {"type": "Feature", "properties": {"norad_id": 66914, "name": "2025-284B", "group": "last-30-days", "lat": 32.75698110649385, "lon": 123.49650803430201, "alt_km": 512.2694910782211, "timestamp": "2025-12-22T14:45:56.098883+00:00", "meta": {"OBJECT_NAME": "2025-284B", "OBJECT_ID": "2025-284B", "EPOCH": "2025-12-16T06:51:11.417184", "MEAN_MOTION": 15.18985981, "ECCENTRICITY": 0.00081793, "INCLINATION": 80.4045, "RA_OF_ASC_NODE": 125.2713, "ARG_OF_PERICENTER": 234.9626, "MEAN_ANOMALY": 125.0834, "EPHEMERIS_TYPE": 0, "CLASSIFICATION_TYPE": "U", "NORAD_CAT_ID": 66914, "ELEMENT_SET_NO": 999, "REV_AT_EPOCH": 166, "BSTAR": 0.00038444995, "MEAN_MOTION_DOT": 8.068e-05, "MEAN_MOTION_DDOT": 0}, "tle": {"line1": "1 66914U 25284B   25350.28554881  .00008068  00000+0  38445-3 0  9991", "line2": "2 66914  80.4045 125.2713 0008179 234.9626 125.0834 15.18985981  1668"}}, "geometry": {"type": "Point", "coordinates": [123.49650803430201, 32.75698110649385]}}, {"type": "Feature", "properties": {"norad_id": 66915, "name": "HULIANWANG DIGUI-105", "group": "last-30-days", "lat": 49.78299492838206, "lon": 160.17166397427647, "alt_km": 877.7451028527767, "timestamp": "2025-12-22T14:45:56.098894+00:00", "meta": {"OBJECT_NAME": "HULIANWANG DIGUI-105", "OBJECT_ID": "2025-285A", "EPOCH": "2025-12-22T05:49:00.859584", "MEAN_MOTION": 14.03718685, "ECCENTRICITY": 0.00080661, "INCLINATION": 50.0051, "RA_OF_ASC_NODE": 78.5771, "ARG_OF_PERICENTER": 314.4391, "MEAN_ANOMALY": 45.5853, "EPHEMERIS_TYPE": 0, "CLASSIFICATION_TYPE": "U", "NORAD_CAT_ID": 66915, "ELEMENT_SET_NO": 999, "REV_AT_EPOCH": 224, "BSTAR": 0.0001209683, "MEAN_MOTION_DOT": 4e-07, "MEAN_MOTION_DDOT": 0}, "tle": {"line1": "1 66915U 25285A   25356.24237106  .00000040  00000+0  12097-3 0  9990", "line2": "2 66915  50.0051  78.5771 0008066 314.4391  45.5853 14.03718685  2241"}}, "geometry": {"type": "Point", "coordinates": [160.17166397427647, 49.78299492838206]}}, {"type": "Feature", "properties": {"norad_id": 66916, "name": "HULIANWANG DIGUI-106", "group": "last-30-days", "lat": 48.93990337973994, "lon": -177.46619945020336, "alt_km": 878.5101408024157, "timestamp": "2025-12-22T14:45:56.098904+00:00", "meta": {"OBJECT_NAME": "HULIANWANG DIGUI-106", "OBJECT_ID": "2025-285B", "EPOCH": "2025-12-22T05:44:51.758016", "MEAN_MOTION": 14.0370357, "ECCENTRICITY": 0.00068412, "INCLINATION": 50.0061, "RA_OF_ASC_NODE": 78.5635, "ARG_OF_PERICENTER": 307.7039, "MEAN_ANOMALY": 52.3245, "EPHEMERIS_TYPE": 0, "CLASSIFICATION_TYPE": "U", "NORAD_CAT_ID": 66916, "ELEMENT_SET_NO": 999, "REV_AT_EPOCH": 224, "BSTAR": 0.00012013206, "MEAN_MOTION_DOT": 3.9e-07, "MEAN_MOTION_DDOT": 0}, "tle": {"line1": "1 66916U 25285B   25356.23948794  .00000039  00000+0  12013-3 0  9998", "line2": "2 66916  50.0061  78.5635 0006841 307.7039  52.3245 14.03703570  2243"}}, "geometry": {"type": "Point", "coordinates": [-177.46619945020336, 48.93990337973994]}}, {"type": "Feature", "properties": {"norad_id": 66917, "name": "HULIANWANG DIGUI-107", "group": "last-30-days", "lat": 46.32596967490919, "lon": -164.5526706678077, "alt_km": 879.4162072646131, "timestamp": "2025-12-22T14:45:56.098915+00:00", "meta": {"OBJECT_NAME": "HULIANWANG DIGUI-107", "OBJECT_ID": "2025-285C", "EPOCH": "2025-12-22T05:42:15.895008", "MEAN_MOTION": 14.03663496, "ECCENTRICITY": 0.0007501, "INCLINATION": 50.0027, "RA_OF_ASC_NODE": 78.547, "ARG_OF_PERICENTER": 317.1783, "MEAN_ANOMALY": 42.8537, "EPHEMERIS_TYPE": 0, "CLASSIFICATION_TYPE": "U", "NORAD_CAT_ID": 66917, "ELEMENT_SET_NO": 999, "REV_AT_EPOCH": 224, "BSTAR": 0.0001087581, "MEAN_MOTION_DOT": 2.1e-07, "MEAN_MOTION_DDOT": 0}, "tle": {"line1": "1 66917U 25285C   25356.23768397  .00000021  00000+0  10876-3 0  9994", "line2": "2 66917  50.0027  78.5470 0007501 317.1783  42.8537 14.03663496  2248"}}, "geometry": {"type": "Point", "coordinates": [-164.5526706678077, 46.32596967490919]}}, {"type": "Feature", "properties": {"norad_id": 66918, "name": "HULIANWANG DIGUI-108", "group": "last-30-days", "lat": 44.94988898415003, "lon": -159.92396851188883, "alt_km": 879.5988444967543, "timestamp": "2025-12-22T14:45:56.098925+00:00", "meta": {"OBJECT_NAME": "HULIANWANG DIGUI-108", "OBJECT_ID": "2025-285D", "EPOCH": "2025-12-22T05:41:14.212320", "MEAN_MOTION": 14.03602508, "ECCENTRICITY": 0.0006646, "INCLINATION": 50.0049, "RA_OF_ASC_NODE": 78.5474, "ARG_OF_PERICENTER": 311.7867, "MEAN_ANOMALY": 48.2469, "EPHEMERIS_TYPE": 0, "CLASSIFICATION_TYPE": "U", "NORAD_CAT_ID": 66918, "ELEMENT_SET_NO": 999, "REV_AT_EPOCH": 224, "BSTAR": 0.00011006561, "MEAN_MOTION_DOT": 2.2e-07, "MEAN_MOTION_DDOT": 0}, "tle": {"line1": "1 66918U 25285D   25356.23697005  .00000022  00000+0  11007-3 0  9990", "line2": "2 66918  50.0049  78.5474 0006646 311.7867  48.2469 14.03602508  2240"}}, "geometry": {"type": "Point", "coordinates": [-159.92396851188883, 44.94988898415003]}}, {"type": "Feature", "properties": {"norad_id": 66919, "name": "HULIANWANG DIGUI-109", "group": "last-30-days", "lat": 41.177588514665565, "lon": -150.24784683092562, "alt_km": 880.4142547154443, "timestamp": "2025-12-22T14:45:56.098935+00:00", "meta": {"OBJECT_NAME": "HULIANWANG DIGUI-109", "OBJECT_ID": "2025-285E", "EPOCH": "2025-12-22T07:21:31.605120", "MEAN_MOTION": 14.03726762, "ECCENTRICITY": 0.00078972, "INCLINATION": 50.0074, "RA_OF_ASC_NODE": 78.2543, "ARG_OF_PERICENTER": 324.3397, "MEAN_ANOMALY": 35.6979, "EPHEMERIS_TYPE": 0, "CLASSIFICATION_TYPE": "U", "NORAD_CAT_ID": 66919, "ELEMENT_SET_NO": 999, "REV_AT_EPOCH": 225, "BSTAR": 0.00011981896, "MEAN_MOTION_DOT": 3.8e-07, "MEAN_MOTION_DDOT": 0}, "tle": {"line1": "1 66919U 25285E   25356.30661580  .00000038  00000+0  11982-3 0  9997", "line2": "2 66919  50.0074  78.2543 0007897 324.3397  35.6979 14.03726762  2256"}}, "geometry": {"type": "Point", "coordinates": [-150.24784683092562, 41.177588514665565]}}]}